[
    {
        "Altitude(m)": 566947.9453130532,
        "Argument of Periapsis(deg)": 0.033114955553567506,
        "Eccentricity": 0.0,
        "Inclination(deg)": 53.0,
        "Latitude(deg)": -41.03641716234596,
        "Longitude(deg)": 40.296151463027684,
        "Mean Anomaly(deg)": -54.99653566211212,
        "RAAN(deg)": 184.95071684264005,
        "Satellite Name": "Starlink Shell 1 829",
        "Satellite Number": 829,
        "Semi-Major Axis(m)": 6931778.249405717,
        "Time(s)": 950
    },
    {
        "Altitude(m)": 566790.3788968518,
        "Argument of Periapsis(deg)": 0.03346353403307874,
        "Eccentricity": 0.0,
        "Inclination(deg)": 53.0,
        "Latitude(deg)": -40.65520982660528,
        "Longitude(deg)": 40.909323313406574,
        "Mean Anomaly(deg)": -54.369704458555354,
        "RAAN(deg)": 184.9501980725626,
        "Satellite Name": "Starlink Shell 1 829",
        "Satellite Number": 829,
        "Semi-Major Axis(m)": 6931778.249405717,
        "Time(s)": 960
    },
    {
        "Altitude(m)": 566631.3275432611,
        "Argument of Periapsis(deg)": 0.03381211251258998,
        "Eccentricity": 0.0,
        "Inclination(deg)": 53.0,
        "Latitude(deg)": -40.27030154293783,
        "Longitude(deg)": 41.51507326267168,
        "Mean Anomaly(deg)": -53.74287325499869,
        "RAAN(deg)": 184.94967930248512,
        "Satellite Name": "Starlink Shell 1 829",
        "Satellite Number": 829,
        "Semi-Major Axis(m)": 6931778.249405717,
        "Time(s)": 970
    },
    {
        "Altitude(m)": 566470.8532425561,
        "Argument of Periapsis(deg)": 0.034160690992101214,
        "Eccentricity": 0.0,
        "Inclination(deg)": 53.0,
        "Latitude(deg)": -39.88178168014402,
        "Longitude(deg)": 42.11351583081631,
        "Mean Anomaly(deg)": -53.11604205144194,
        "RAAN(deg)": 184.94916053240766,
        "Satellite Name": "Starlink Shell 1 829",
        "Satellite Number": 829,
        "Semi-Major Axis(m)": 6931778.249405717,
        "Time(s)": 980
    },
    {
        "Altitude(m)": 566309.018473508,
        "Argument of Periapsis(deg)": 0.034509269471612446,
        "Eccentricity": 0.0,
        "Inclination(deg)": 53.0,
        "Latitude(deg)": -39.48973778899593,
        "Longitude(deg)": 42.70476732926084,
        "Mean Anomaly(deg)": -52.48921084788519,
        "RAAN(deg)": 184.9486417623302,
        "Satellite Name": "Starlink Shell 1 829",
        "Satellite Number": 829,
        "Semi-Major Axis(m)": 6931778.249405717,
        "Time(s)": 990
    }
]